OBJECT_NAME,OBJECT_ID,EPOCH,MEAN_MOTION,ECCENTRICITY,INCLINATION,RA_OF_ASC_NODE,ARG_OF_PERICENTER,MEAN_ANOMALY,EPHEMERIS_TYPE,CLASSIFICATION_TYPE,NORAD_CAT_ID,ELEMENT_SET_NO,REV_AT_EPOCH,BSTAR,MEAN_MOTION_DOT,MEAN_MOTION_DDOT
GSAT0216 (GALILEO 20),2017-079B,2026-07-20T03:43:27.887232,1.70474538,.00049348,55.0668,220.5989,278.3287,81.6543,0,U,43056,999,5356,0,.57E-6,0
GSAT0217 (GALILEO 21),2017-079C,2026-07-20T09:01:25.682016,1.70474474,.0004263,55.0653,220.5906,292.8030,67.1914,0,U,43057,999,5355,0,.59E-6,0
GSAT0218 (GALILEO 22),2017-079D,2026-07-20T00:13:39.531648,1.70474501,.00054204,55.0654,220.5982,275.2933,84.6836,0,U,43058,999,5357,0,.56E-6,0
BEIDOU-3 M8 (C28),2018-003B,2026-07-19T12:17:56.141376,1.86230823,.0003126,54.2897,301.1683,256.0449,103.9557,0,U,43108,999,5796,0,-.97E-6,0
BEIDOU-3 M4 (C22),2018-018A,2026-07-19T22:56:09.167424,1.86231755,.00071723,56.6802,62.0675,31.2345,328.8714,0,U,43207,999,5735,0,-.76E-6,0
BEIDOU-3 M3 (C21),2018-018B,2026-07-17T08:05:51.086112,1.86230933,.00073001,56.6769,62.1579,348.2235,11.8303,0,U,43208,999,5730,0,-.55E-6,0
BEIDOU-3 M9 (C29),2018-029A,2026-07-20T18:39:06.463296,1.86228473,.0001226,54.1607,298.7724,191.5121,168.5224,0,U,43245,999,5652,0,-.98E-6,0
BEIDOU-3 M10 (C30),2018-029B,2026-07-20T04:11:07.424736,1.86229084,.0003152,54.1597,298.8202,37.2362,322.8234,0,U,43246,999,5649,0,-.97E-6,0
IRNSS-1I,2018-035A,2026-07-19T17:41:38.584032,1.00273777,.00183655,28.8289,73.6878,178.9692,5.3277,0,U,43286,999,3040,0,.63E-6,0
COSMOS 2527 (756),2018-053A,2026-07-20T09:39:19.852704,2.13101992,.0006344,65.5961,72.7996,227.3843,132.6293,0,U,43508,999,6298,0,-.49E-6,0
BEIDOU-2 IGSO-7 (C16),2018-057A,2026-07-16T19:52:42.225600,1.00242392,.01049148,55.1987,162.7987,237.9691,299.1450,0,U,43539,999,2942,0,-.84E-6,0
GSAT0221 (GALILEO 25),2018-060A,2026-07-17T13:36:55.120032,1.70476136,.00027013,57.1585,340.9609,283.6812,76.2771,0,U,43564,999,4968,0,-.104E-5,0
GSAT0222 (GALILEO 26),2018-060B,2026-07-20T03:12:01.296576,1.70476030,.0002944,57.1609,340.8954,234.5424,125.4233,0,U,43565,999,4977,0,-.107E-5,0
GSAT0219 (GALILEO 23),2018-060C,2026-07-18T14:15:59.838048,1.70476160,.00018574,57.1608,340.9384,295.5518,64.4195,0,U,43566,999,4972,0,-.105E-5,0
GSAT0220 (GALILEO 24),2018-060D,2026-07-19T23:43:37.727904,1.70476103,.00021108,57.1597,340.9001,284.4251,75.5444,0,U,43567,999,4973,0,-.107E-5,0
BEIDOU-3 M5 (C23),2018-062A,2026-07-19T07:47:04.737696,1.86228602,.00056346,54.0864,181.2111,294.4179,65.4981,0,U,43581,999,5423,0,.66E-6,0
BEIDOU-3 M6 (C24),2018-062B,2026-07-20T06:17:08.096064,1.86227764,.0005402,54.0864,181.1686,11.1731,348.8168,0,U,43582,999,5425,0,.74E-6,0
BEIDOU-3 M12 (C26),2018-067A,2026-07-20T04:48:29.818368,1.86227616,.00080114,54.1815,179.9209,30.2508,329.7719,0,U,43602,999,5373,0,.73E-6,0
BEIDOU-3 M11 (C25),2018-067B,2026-07-20T08:03:07.341696,1.86227099,.0004714,54.1791,179.8798,13.7964,346.1934,0,U,43603,999,5376,0,.74E-6,0
BEIDOU-3 M13 (C32),2018-072A,2026-07-19T05:11:24.124416,1.86231233,.0005712,56.6525,61.6027,334.9985,25.0385,0,U,43622,999,5325,0,-.72E-6,0
BEIDOU-3 M14 (C33),2018-072B,2026-07-20T03:44:02.646816,1.86231093,.0005474,56.6556,61.5665,12.2257,347.8503,0,U,43623,999,5326,0,-.77E-6,0
BEIDOU-3 M16 (C35),2018-078A,2026-07-20T07:27:03.292128,1.86232352,.00065272,54.0576,298.8239,39.3317,320.7532,0,U,43647,999,5277,0,-.97E-6,0
BEIDOU-3 M15 (C34),2018-078B,2026-07-20T10:33:11.497824,1.86232458,.0003382,54.0533,298.8194,57.1368,302.9333,0,U,43648,999,5279,0,-.98E-6,0
COSMOS 2529 (757),2018-086A,2026-07-19T13:26:21.418368,2.13101881,.00121132,64.2970,191.5013,256.2059,103.6593,0,U,43687,999,5997,0,.76E-6,0
BEIDOU-3 M17 (C36),2018-093A,2026-07-20T07:56:52.644768,1.86228440,.00100331,54.1701,181.1718,295.0625,243.4758,0,U,43706,999,5215,0,.75E-6,0
BEIDOU-3 M18 (C37),2018-093B,2026-07-19T09:23:41.958240,1.86226601,.0008118,54.1711,181.1959,324.4111,35.5097,0,U,43707,999,5213,0,.67E-6,0
GPS BIII-1  (PRN 04),2018-109A,2026-07-20T03:51:31.963968,2.00563208,.00387408,55.7017,90.8853,197.0641,335.1584,0,U,43873,999,5573,0,-.51E-6,0
BEIDOU-3 IGSO-1 (C38),2019-023A,2026-07-16T07:41:18.119904,1.00282972,.00259114,58.7368,37.3490,224.0979,267.2124,0,U,44204,999,750,0,-.209E-5,0
